start=new Date('2021-11-07T00:00:00.000Z').valueOf();
sats=[{"BSTAR":"-0.00013306000000","OBJECT_NAME":"STARLINK-2497","SEMIMAJOR_AXIS":"6925.432","ELEMENT_SET_NO":"999","COUNTRY_CODE":"US","REV_AT_EPOCH":"2850","FILE":"3205927","PERIAPSIS":"546.259","MEAN_ELEMENT_THEORY":"SGP4","EPHEMERIS_TYPE":"0","RA_OF_ASC_NODE":"91.9677","CENTER_NAME":"EARTH","TLE_LINE2":"2 48455  53.0546  91.9677 0001499  85.9978 274.1182 15.06372642 28505","MEAN_MOTION_DOT":"-0.00002261","INCLINATION":"53.0546","OBJECT_TYPE":"PAYLOAD","MEAN_MOTION":"15.06372642","RCS_SIZE":"LARGE","NORAD_CAT_ID":"48455","GP_ID":"189104825","MEAN_ANOMALY":"274.1182","REF_FRAME":"TEME","DECAY_DATE":null,"LAUNCH_DATE":"2021-05-09","PERIOD":"95.594","OBJECT_ID":"2021-040AD","MEAN_MOTION_DDOT":"0.0000000000000","EPOCH":"2021-11-06T19:12:15.338592","TIME_SYSTEM":"UTC","SITE":"AFETR","APOAPSIS":"548.336","TLE_LINE1":"1 48455U 21040AD  21310.80017753 -.00002261  00000-0 -13306-3 0  9990","ECCENTRICITY":"0.00014990","ARG_OF_PERICENTER":"85.9978","CLASSIFICATION_TYPE":"U"},{"ARG_OF_PERICENTER":"89.7878","CLASSIFICATION_TYPE":"U","TLE_LINE1":"1 48456U 21040AE  21310.79648661 -.00001679  00000-0 -93875-4 0  9999","ECCENTRICITY":"0.00014470","APOAPSIS":"548.285","SITE":"AFETR","TIME_SYSTEM":"UTC","EPOCH":"2021-11-06T19:06:56.443104","MEAN_MOTION_DDOT":"0.0000000000000","OBJECT_ID":"2021-040AE","MEAN_ANOMALY":"270.3277","DECAY_DATE":null,"LAUNCH_DATE":"2021-05-09","PERIOD":"95.594","REF_FRAME":"TEME","GP_ID":"189104326","NORAD_CAT_ID":"48456","RCS_SIZE":"LARGE","MEAN_MOTION":"15.06377356","OBJECT_TYPE":"PAYLOAD","INCLINATION":"53.0549","CENTER_NAME":"EARTH","TLE_LINE2":"2 48456  53.0549  91.9886 0001447  89.7878 270.3277 15.06377356 28505","MEAN_MOTION_DOT":"-0.00001679","EPHEMERIS_TYPE":"0","RA_OF_ASC_NODE":"91.9886","PERIAPSIS":"546.281","MEAN_ELEMENT_THEORY":"SGP4","REV_AT_EPOCH":"2850","COUNTRY_CODE":"US","FILE":"3205927","OBJECT_NAME":"STARLINK-2508","SEMIMAJOR_AXIS":"6925.418","ELEMENT_SET_NO":"999","BSTAR":"-0.00009387500000"},{"MEAN_MOTION_DDOT":"0.0000000000000","OBJECT_ID":"2021-040AG","DECAY_DATE":null,"LAUNCH_DATE":"2021-05-09","REF_FRAME":"TEME","PERIOD":"95.593","MEAN_ANOMALY":"262.1557","CLASSIFICATION_TYPE":"U","ARG_OF_PERICENTER":"97.9576","ECCENTRICITY":"0.00012660","TLE_LINE1":"1 48458U 21040AG  21310.80061344 -.00002079  00000-0 -12077-3 0  9999","APOAPSIS":"548.156","SITE":"AFETR","EPOCH":"2021-11-06T19:12:53.001216","TIME_SYSTEM":"UTC","MEAN_MOTION_DOT":"-0.00002079","TLE_LINE2":"2 48458  53.0567  96.9600 0001266  97.9576 262.1557 15.06378617 28377","CENTER_NAME":"EARTH","EPHEMERIS_TYPE":"0","RA_OF_ASC_NODE":"96.9600","MEAN_ELEMENT_THEORY":"SGP4","PERIAPSIS":"546.402","FILE":"3205927","REV_AT_EPOCH":"2837","COUNTRY_CODE":"US","SEMIMAJOR_AXIS":"6925.414","ELEMENT_SET_NO":"999","OBJECT_NAME":"STARLINK-2698","BSTAR":"-0.00012077000000","GP_ID":"189104828","RCS_SIZE":"LARGE","NORAD_CAT_ID":"48458","MEAN_MOTION":"15.06378617","OBJECT_TYPE":"PAYLOAD","INCLINATION":"53.0567"},{"SEMIMAJOR_AXIS":"6925.424","ELEMENT_SET_NO":"999","OBJECT_NAME":"STARLINK-2579","BSTAR":"-0.00050968000000","MEAN_MOTION_DOT":"-0.00007860","TLE_LINE2":"2 48459  53.0548  97.1147 0001523  84.1821 275.9342 15.06375386 28434","CENTER_NAME":"EARTH","EPHEMERIS_TYPE":"0","RA_OF_ASC_NODE":"97.1147","MEAN_ELEMENT_THEORY":"SGP4","PERIAPSIS":"546.234","FILE":"3205927","REV_AT_EPOCH":"2843","COUNTRY_CODE":"US","MEAN_MOTION":"15.06375386","OBJECT_TYPE":"PAYLOAD","INCLINATION":"53.0548","GP_ID":"189104330","NORAD_CAT_ID":"48459","RCS_SIZE":"LARGE","DECAY_DATE":null,"LAUNCH_DATE":"2021-05-09","REF_FRAME":"TEME","PERIOD":"95.594","MEAN_ANOMALY":"275.9342","MEAN_MOTION_DDOT":"0.0000000000000","OBJECT_ID":"2021-040AH","ECCENTRICITY":"0.00015230","TLE_LINE1":"1 48459U 21040AH  21310.76742837 -.00007860  00000-0 -50968-3 0  9992","APOAPSIS":"548.344","SITE":"AFETR","TIME_SYSTEM":"UTC","EPOCH":"2021-11-06T18:25:05.811168","ARG_OF_PERICENTER":"84.1821","CLASSIFICATION_TYPE":"U"},{"ARG_OF_PERICENTER":"105.9653","CLASSIFICATION_TYPE":"U","SITE":"AFETR","TIME_SYSTEM":"UTC","EPOCH":"2021-11-06T10:07:31.353024","ECCENTRICITY":"0.00010910","TLE_LINE1":"1 48460U 21040AJ  21310.42189066  .00001509  00000-0  12019-3 0  9993","APOAPSIS":"547.968","OBJECT_ID":"2021-040AJ","MEAN_MOTION_DDOT":"0.0000000000000","DECAY_DATE":null,"PERIOD":"95.592","LAUNCH_DATE":"2021-05-09","REF_FRAME":"TEME","MEAN_ANOMALY":"254.1456","GP_ID":"189132326","NORAD_CAT_ID":"48460","RCS_SIZE":"LARGE","OBJECT_TYPE":"PAYLOAD","INCLINATION":"53.0547","MEAN_MOTION":"15.06400447","MEAN_ELEMENT_THEORY":"SGP4","PERIAPSIS":"546.457","FILE":"3206165","COUNTRY_CODE":"US","REV_AT_EPOCH":"2828","MEAN_MOTION_DOT":"0.00001509","TLE_LINE2":"2 48460  53.0547  98.6640 0001091 105.9653 254.1456 15.06400447 28289","CENTER_NAME":"EARTH","EPHEMERIS_TYPE":"0","RA_OF_ASC_NODE":"98.6640","BSTAR":"0.00012019000000","ELEMENT_SET_NO":"999","SEMIMAJOR_AXIS":"6925.347","OBJECT_NAME":"STARLINK-2582"},{"MEAN_MOTION_DDOT":"0.0000000000000","OBJECT_ID":"2021-040AK","MEAN_ANOMALY":"264.1047","DECAY_DATE":null,"LAUNCH_DATE":"2021-05-09","PERIOD":"95.593","REF_FRAME":"TEME","CLASSIFICATION_TYPE":"U","ARG_OF_PERICENTER":"96.0130","APOAPSIS":"548.398","TLE_LINE1":"1 48461U 21040AK  21310.50297987 -.00005418  00000-0 -34519-3 0  9999","ECCENTRICITY":"0.00016570","EPOCH":"2021-11-06T12:04:17.460768","TIME_SYSTEM":"UTC","SITE":"AFETR","RA_OF_ASC_NODE":"98.2959","EPHEMERIS_TYPE":"0","CENTER_NAME":"EARTH","TLE_LINE2":"2 48461  53.0542  98.2959 0001657  96.0130 264.1047 15.06388057 27796","MEAN_MOTION_DOT":"-0.00005418","COUNTRY_CODE":"US","REV_AT_EPOCH":"2779","FILE":"3206165","PERIAPSIS":"546.103","MEAN_ELEMENT_THEORY":"SGP4","OBJECT_NAME":"STARLINK-2693","ELEMENT_SET_NO":"999","SEMIMAJOR_AXIS":"6925.385","BSTAR":"-0.00034519000000","RCS_SIZE":"LARGE","NORAD_CAT_ID":"48461","GP_ID":"189132209","MEAN_MOTION":"15.06388057","INCLINATION":"53.0542","OBJECT_TYPE":"PAYLOAD"},{"RCS_SIZE":"LARGE","NORAD_CAT_ID":"48462","GP_ID":"189104324","MEAN_MOTION":"15.06382754","INCLINATION":"53.0508","OBJECT_TYPE":"PAYLOAD","RA_OF_ASC_NODE":"102.0185","EPHEMERIS_TYPE":"0","MEAN_MOTION_DOT":"-0.00005153","TLE_LINE2":"2 48462  53.0508 102.0185 0001513  72.6326 287.4829 15.06382754 28360","CENTER_NAME":"EARTH","FILE":"3205927","COUNTRY_CODE":"US","REV_AT_EPOCH":"2836","MEAN_ELEMENT_THEORY":"SGP4","PERIAPSIS":"546.219","SEMIMAJOR_AXIS":"6925.401","ELEMENT_SET_NO":"999","OBJECT_NAME":"STARLINK-2683","BSTAR":"-0.00032744000000","CLASSIFICATION_TYPE":"U","ARG_OF_PERICENTER":"72.6326","APOAPSIS":"548.314","ECCENTRICITY":"0.00015130","TLE_LINE1":"1 48462U 21040AL  21310.79092565 -.00005153  00000-0 -32744-3 0  9990","EPOCH":"2021-11-06T18:58:55.976160","TIME_SYSTEM":"UTC","SITE":"AFETR","MEAN_MOTION_DDOT":"0.0000000000000","OBJECT_ID":"2021-040AL","LAUNCH_DATE":"2021-05-09","DECAY_DATE":null,"REF_FRAME":"TEME","PERIOD":"95.593","MEAN_ANOMALY":"287.4829"},{"ARG_OF_PERICENTER":"82.2785","CLASSIFICATION_TYPE":"U","EPOCH":"2021-11-06T18:11:10.097664","TIME_SYSTEM":"UTC","SITE":"AFETR","APOAPSIS":"548.305","TLE_LINE1":"1 48463U 21040AM  21310.75775576 -.00004945  00000-0 -31344-3 0  9990","ECCENTRICITY":"0.00014950","OBJECT_ID":"2021-040AM","MEAN_MOTION_DDOT":"0.0000000000000","MEAN_ANOMALY":"277.8374","DECAY_DATE":null,"LAUNCH_DATE":"2021-05-09","PERIOD":"95.593","REF_FRAME":"TEME","RCS_SIZE":"LARGE","NORAD_CAT_ID":"48463","GP_ID":"189099190","INCLINATION":"53.0551","OBJECT_TYPE":"PAYLOAD","MEAN_MOTION":"15.06381540","COUNTRY_CODE":"US","REV_AT_EPOCH":"2903","FILE":"3205703","PERIAPSIS":"546.235","MEAN_ELEMENT_THEORY":"SGP4","EPHEMERIS_TYPE":"0","RA_OF_ASC_NODE":"102.1622","CENTER_NAME":"EARTH","MEAN_MOTION_DOT":"-0.00004945","TLE_LINE2":"2 48463  53.0551 102.1622 0001495  82.2785 277.8374 15.06381540 29036","BSTAR":"-0.00031344000000","OBJECT_NAME":"STARLINK-2689","ELEMENT_SET_NO":"999","SEMIMAJOR_AXIS":"6925.405"},{"APOAPSIS":"548.394","ECCENTRICITY":"0.00016820","TLE_LINE1":"1 48464U 21040AN  21310.80292992 -.00000237  00000-0  29590-5 0  9994","EPOCH":"2021-11-06T19:16:13.145088","TIME_SYSTEM":"UTC","SITE":"AFETR","CLASSIFICATION_TYPE":"U","ARG_OF_PERICENTER":"77.9388","REF_FRAME":"TEME","DECAY_DATE":null,"LAUNCH_DATE":"2021-05-09","PERIOD":"95.592","MEAN_ANOMALY":"282.1790","MEAN_MOTION_DDOT":"0.0000000000000","OBJECT_ID":"2021-040AN","MEAN_MOTION":"15.06394849","INCLINATION":"53.0560","OBJECT_TYPE":"PAYLOAD","NORAD_CAT_ID":"48464","RCS_SIZE":"LARGE","GP_ID":"189104832","SEMIMAJOR_AXIS":"6925.364","ELEMENT_SET_NO":"999","OBJECT_NAME":"STARLINK-2686","BSTAR":"0.00000295900000","RA_OF_ASC_NODE":"101.9593","EPHEMERIS_TYPE":"0","TLE_LINE2":"2 48464  53.0560 101.9593 0001682  77.9388 282.1790 15.06394849 29047","MEAN_MOTION_DOT":"-0.00000237","CENTER_NAME":"EARTH","FILE":"3205927","REV_AT_EPOCH":"2904","COUNTRY_CODE":"US","MEAN_ELEMENT_THEORY":"SGP4","PERIAPSIS":"546.064"},{"MEAN_ANOMALY":"281.3509","LAUNCH_DATE":"2021-05-09","DECAY_DATE":null,"REF_FRAME":"TEME","PERIOD":"95.592","MEAN_MOTION_DDOT":"0.0000000000000","OBJECT_ID":"2021-040AP","APOAPSIS":"548.171","TLE_LINE1":"1 48465U 21040AP  21310.74763438 -.00000468  00000-0 -12535-4 0  9993","ECCENTRICITY":"0.00013860","EPOCH":"2021-11-06T17:56:35.610432","TIME_SYSTEM":"UTC","SITE":"AFETR","CLASSIFICATION_TYPE":"U","ARG_OF_PERICENTER":"78.7636","OBJECT_NAME":"STARLINK-2681","ELEMENT_SET_NO":"999","SEMIMAJOR_AXIS":"6925.347","BSTAR":"-0.00001253500000","RA_OF_ASC_NODE":"102.1954","EPHEMERIS_TYPE":"0","CENTER_NAME":"EARTH","TLE_LINE2":"2 48465  53.0567 102.1954 0001386  78.7636 281.3509 15.06400631 29030","MEAN_MOTION_DOT":"-0.00000468","REV_AT_EPOCH":"2903","COUNTRY_CODE":"US","FILE":"3205927","PERIAPSIS":"546.252","MEAN_ELEMENT_THEORY":"SGP4","MEAN_MOTION":"15.06400631","INCLINATION":"53.0567","OBJECT_TYPE":"PAYLOAD","NORAD_CAT_ID":"48465","RCS_SIZE":"LARGE","GP_ID":"189104332"}];
